{
  "type": "FeatureCollection",
  "features": [
    {
      "type": "Feature",
      "properties": {
        "norad_id": 24876,
        "name": "GPS BIIR-2  (PRN 13)",
        "group": "gps-ops",
        "lat": 50.95655462954795,
        "lon": 161.91108344118655,
        "alt_km": 19925.311713111943,
        "timestamp": "2025-12-25T07:00:34.304712+00:00",
        "meta_object_name": "GPS BIIR-2  (PRN 13)",
        "meta_object_id": "1997-035A",
        "meta_epoch": "2025-12-23T04:52:08.851872",
        "meta_mean_motion": 2.00563705,
        "meta_eccentricity": 0.0096844,
        "meta_inclination": 55.9001,
        "meta_ra_of_asc_node": 105.4597,
        "meta_arg_of_pericenter": 56.9573,
        "meta_mean_anomaly": 303.9609,
        "meta_ephemeris_type": 0,
        "meta_classification_type": "U",
        "meta_norad_cat_id": 24876,
        "meta_element_set_no": 999,
        "meta_rev_at_epoch": 20842,
        "meta_bstar": 0,
        "meta_mean_motion_dot": 2e-07,
        "meta_mean_motion_ddot": 0,
        "tle_line1": "1 24876U 97035A   25357.20288023  .00000020  00000+0  00000+0 0  9998",
        "tle_line2": "2 24876  55.9001 105.4597 0096844  56.9573 303.9609  2.00563705208420"
      },
      "geometry": {
        "type": "Point",
        "coordinates": [
          161.91108344118655,
          50.95655462954795
        ]
      }
    },
    {
      "type": "Feature",
      "properties": {
        "norad_id": 26360,
        "name": "GPS BIIR-4  (PRN 20)",
        "group": "gps-ops",
        "lat": 15.429522670371407,
        "lon": -164.78355550522156,
        "alt_km": 20165.589120753397,
        "timestamp": "2025-12-25T07:00:34.304740+00:00",
        "meta_object_name": "GPS BIIR-4  (PRN 20)",
        "meta_object_id": "2000-025A",
        "meta_epoch": "2025-12-24T00:51:46.954368",
        "meta_mean_motion": 2.00566722,
        "meta_eccentricity": 0.00388905,
        "meta_inclination": 55.0519,
        "meta_ra_of_asc_node": 26.3811,
        "meta_arg_of_pericenter": 243.065,
        "meta_mean_anomaly": 91.4559,
        "meta_ephemeris_type": 0,
        "meta_classification_type": "U",
        "meta_norad_cat_id": 26360,
        "meta_element_set_no": 999,
        "meta_rev_at_epoch": 18775,
        "meta_bstar": 0,
        "meta_mean_motion_dot": -5.6e-07,
        "meta_mean_motion_ddot": 0,
        "tle_line1": "1 26360U 00025A   25358.03596012 -.00000056  00000+0  00000+0 0  9993",
        "tle_line2": "2 26360  55.0519  26.3811 0038890 243.0650  91.4559  2.00566722187754"
      },
      "geometry": {
        "type": "Point",
        "coordinates": [
          -164.78355550522156,
          15.429522670371407
        ]
      }
    },
    {
      "type": "Feature",
      "properties": {
        "norad_id": 26407,
        "name": "GPS BIIR-5  (PRN 22)",
        "group": "gps-ops",
        "lat": 1.9312072673256493,
        "lon": -136.55854095361516,
        "alt_km": 20014.192258720475,
        "timestamp": "2025-12-25T07:00:34.304756+00:00",
        "meta_object_name": "GPS BIIR-5  (PRN 22)",
        "meta_object_id": "2000-040A",
        "meta_epoch": "2025-12-24T00:49:48.055872",
        "meta_mean_motion": 2.00568088,
        "meta_eccentricity": 0.01253966,
        "meta_inclination": 54.8883,
        "meta_ra_of_asc_node": 222.1199,
        "meta_arg_of_pericenter": 301.9909,
        "meta_mean_anomaly": 231.2222,
        "meta_ephemeris_type": 0,
        "meta_classification_type": "U",
        "meta_norad_cat_id": 26407,
        "meta_element_set_no": 999,
        "meta_rev_at_epoch": 18643,
        "meta_bstar": 0,
        "meta_mean_motion_dot": 6.5e-07,
        "meta_mean_motion_ddot": 0,
        "tle_line1": "1 26407U 00040A   25358.03458398  .00000065  00000+0  00000+0 0  9995",
        "tle_line2": "2 26407  54.8883 222.1199 0125396 301.9909 231.2222  2.00568088186433"
      },
      "geometry": {
        "type": "Point",
        "coordinates": [
          -136.55854095361516,
          1.9312072673256493
        ]
      }
    },
    {
      "type": "Feature",
      "properties": {
        "norad_id": 27663,
        "name": "GPS BIIR-8  (PRN 16)",
        "group": "gps-ops",
        "lat": 32.573165898772814,
        "lon": 15.22014882988779,
        "alt_km": 20150.260692630505,
        "timestamp": "2025-12-25T07:00:34.304770+00:00",
        "meta_object_name": "GPS BIIR-8  (PRN 16)",
        "meta_object_id": "2003-005A",
        "meta_epoch": "2025-12-24T14:50:30.961824",
        "meta_mean_motion": 2.00570207,
        "meta_eccentricity": 0.01478624,
        "meta_inclination": 54.9207,
        "meta_ra_of_asc_node": 221.9058,
        "meta_arg_of_pericenter": 51.9747,
        "meta_mean_anomaly": 318.7946,
        "meta_ephemeris_type": 0,
        "meta_classification_type": "U",
        "meta_norad_cat_id": 27663,
        "meta_element_set_no": 999,
        "meta_rev_at_epoch": 16781,
        "meta_bstar": 0,
        "meta_mean_motion_dot": 6.6e-07,
        "meta_mean_motion_ddot": 0,
        "tle_line1": "1 27663U 03005A   25358.61841391  .00000066  00000+0  00000+0 0  9998",
        "tle_line2": "2 27663  54.9207 221.9058 0147862  51.9747 318.7946  2.00570207167815"
      },
      "geometry": {
        "type": "Point",
        "coordinates": [
          15.22014882988779,
          32.573165898772814
        ]
      }
    },
    {
      "type": "Feature",
      "properties": {
        "norad_id": 28190,
        "name": "GPS BIIR-11 (PRN 19)",
        "group": "gps-ops",
        "lat": -47.18949660888496,
        "lon": -126.41313630800389,
        "alt_km": 20365.8453961235,
        "timestamp": "2025-12-25T07:00:34.304784+00:00",
        "meta_object_name": "GPS BIIR-11 (PRN 19)",
        "meta_object_id": "2004-009A",
        "meta_epoch": "2025-12-24T01:27:29.275200",
        "meta_mean_motion": 2.00560356,
        "meta_eccentricity": 0.0108547,
        "meta_inclination": 54.9754,
        "meta_ra_of_asc_node": 282.7628,
        "meta_arg_of_pericenter": 167.835,
        "meta_mean_anomaly": 318.566,
        "meta_ephemeris_type": 0,
        "meta_classification_type": "U",
        "meta_norad_cat_id": 28190,
        "meta_element_set_no": 999,
        "meta_rev_at_epoch": 15943,
        "meta_bstar": 0,
        "meta_mean_motion_dot": -2.4e-07,
        "meta_mean_motion_ddot": 0,
        "tle_line1": "1 28190U 04009A   25358.06075550 -.00000024  00000+0  00000+0 0  9999",
        "tle_line2": "2 28190  54.9754 282.7628 0108547 167.8350 318.5660  2.00560356159434"
      },
      "geometry": {
        "type": "Point",
        "coordinates": [
          -126.41313630800389,
          -47.18949660888496
        ]
      }
    },
    {
      "type": "Feature",
      "properties": {
        "norad_id": 28474,
        "name": "GPS BIIR-13 (PRN 02)",
        "group": "gps-ops",
        "lat": -2.155219795295859,
        "lon": -29.611130329080186,
        "alt_km": 19871.555025650057,
        "timestamp": "2025-12-25T07:00:34.304797+00:00",
        "meta_object_name": "GPS BIIR-13 (PRN 02)",
        "meta_object_id": "2004-045A",
        "meta_epoch": "2025-12-24T12:26:01.037184",
        "meta_mean_motion": 2.00570034,
        "meta_eccentricity": 0.01709749,
        "meta_inclination": 55.2348,
        "meta_ra_of_asc_node": 331.9322,
        "meta_arg_of_pericenter": 309.7767,
        "meta_mean_anomaly": 207.2854,
        "meta_ephemeris_type": 0,
        "meta_classification_type": "U",
        "meta_norad_cat_id": 28474,
        "meta_element_set_no": 999,
        "meta_rev_at_epoch": 15492,
        "meta_bstar": 0,
        "meta_mean_motion_dot": -6e-07,
        "meta_mean_motion_ddot": 0,
        "tle_line1": "1 28474U 04045A   25358.51806756 -.00000060  00000+0  00000+0 0  9994",
        "tle_line2": "2 28474  55.2348 331.9322 0170974 309.7767 207.2854  2.00570034154924"
      },
      "geometry": {
        "type": "Point",
        "coordinates": [
          -29.611130329080186,
          -2.155219795295859
        ]
      }
    },
    {
      "type": "Feature",
      "properties": {
        "norad_id": 28874,
        "name": "GPS BIIRM-1 (PRN 17)",
        "group": "gps-ops",
        "lat": -34.87810687116846,
        "lon": -108.9772667244662,
        "alt_km": 19861.152969294126,
        "timestamp": "2025-12-25T07:00:34.304809+00:00",
        "meta_object_name": "GPS BIIRM-1 (PRN 17)",
        "meta_object_id": "2005-038A",
        "meta_epoch": "2025-12-24T20:45:31.120992",
        "meta_mean_motion": 2.00577585,
        "meta_eccentricity": 0.0131256,
        "meta_inclination": 55.0211,
        "meta_ra_of_asc_node": 280.2128,
        "meta_arg_of_pericenter": 293.8377,
        "meta_mean_anomaly": 72.9738,
        "meta_ephemeris_type": 0,
        "meta_classification_type": "U",
        "meta_norad_cat_id": 28874,
        "meta_element_set_no": 999,
        "meta_rev_at_epoch": 14834,
        "meta_bstar": 0,
        "meta_mean_motion_dot": -2.3e-07,
        "meta_mean_motion_ddot": 0,
        "tle_line1": "1 28874U 05038A   25358.86494353 -.00000023  00000+0  00000+0 0  9994",
        "tle_line2": "2 28874  55.0211 280.2128 0131256 293.8377  72.9738  2.00577585148340"
      },
      "geometry": {
        "type": "Point",
        "coordinates": [
          -108.9772667244662,
          -34.87810687116846
        ]
      }
    }
  ]
}